{
  "type": "FeatureCollection",
  "features": [
    {
      "type": "Feature",
      "properties": {
        "norad_id": 38867,
        "name": "INTELSAT 23 (IS-23)",
        "group": "intelsat",
        "lat": 0.02267895664730926,
        "lon": 98.10265451940954,
        "alt_km": 35790.51543316391,
        "timestamp": "2025-12-09T04:51:47.176008+00:00",
        "meta_object_name": "INTELSAT 23 (IS-23)",
        "meta_object_id": "2012-057A",
        "meta_epoch": "2025-12-08T18:29:17.777760",
        "meta_mean_motion": 1.00261029,
        "meta_eccentricity": 0.0002051,
        "meta_inclination": 0.0412,
        "meta_ra_of_asc_node": 93.7386,
        "meta_arg_of_pericenter": 103.2947,
        "meta_mean_anomaly": 105.0644,
        "meta_ephemeris_type": 0,
        "meta_classification_type": "U",
        "meta_norad_cat_id": 38867,
        "meta_element_set_no": 999,
        "meta_rev_at_epoch": 4804,
        "meta_bstar": 0,
        "meta_mean_motion_dot": -2.83e-06,
        "meta_mean_motion_ddot": 0,
        "tle_line1": "1 38867U 12057A   25342.77034465 -.00000283  00000+0  00000+0 0  9991",
        "tle_line2": "2 38867   0.0412  93.7386 0002051 103.2947 105.0644  1.00261029 48048"
      },
      "geometry": {
        "type": "Point",
        "coordinates": [
          98.10265451940954,
          0.02267895664730926
        ]
      }
    },
    {
      "type": "Feature",
      "properties": {
        "norad_id": 39360,
        "name": "FM-6",
        "group": "intelsat",
        "lat": 0.0031001087065014544,
        "lon": 34.96317417225731,
        "alt_km": 35797.078493798064,
        "timestamp": "2025-12-09T04:51:47.176021+00:00",
        "meta_object_name": "FM-6",
        "meta_object_id": "2013-058A",
        "meta_epoch": "2025-12-08T13:15:20.428992",
        "meta_mean_motion": 1.0026711,
        "meta_eccentricity": 0.000319,
        "meta_inclination": 0.0119,
        "meta_ra_of_asc_node": 96.1147,
        "meta_arg_of_pericenter": 75.3013,
        "meta_mean_anomaly": 348.8342,
        "meta_ephemeris_type": 0,
        "meta_classification_type": "U",
        "meta_norad_cat_id": 39360,
        "meta_element_set_no": 999,
        "meta_rev_at_epoch": 4416,
        "meta_bstar": 0,
        "meta_mean_motion_dot": -1.4e-07,
        "meta_mean_motion_ddot": 0,
        "tle_line1": "1 39360U 13058A   25342.55231978 -.00000014  00000+0  00000+0 0  9998",
        "tle_line2": "2 39360   0.0119  96.1147 0003190  75.3013 348.8342  1.00267110 44169"
      },
      "geometry": {
        "type": "Point",
        "coordinates": [
          34.96317417225731,
          0.0031001087065014544
        ]
      }
    },
    {
      "type": "Feature",
      "properties": {
        "norad_id": 40271,
        "name": "INTELSAT 30 (IS-30)",
        "group": "intelsat",
        "lat": 0.026110370442752755,
        "lon": 56.076574242723595,
        "alt_km": 35782.008293756655,
        "timestamp": "2025-12-09T04:51:47.176033+00:00",
        "meta_object_name": "INTELSAT 30 (IS-30)",
        "meta_object_id": "2014-062A",
        "meta_epoch": "2025-12-08T12:25:08.959584",
        "meta_mean_motion": 1.0027093,
        "meta_eccentricity": 0.00012019,
        "meta_inclination": 0.0126,
        "meta_ra_of_asc_node": 12.2657,
        "meta_arg_of_pericenter": 75.3577,
        "meta_mean_anomaly": 81.1316,
        "meta_ephemeris_type": 0,
        "meta_classification_type": "U",
        "meta_norad_cat_id": 40271,
        "meta_element_set_no": 999,
        "meta_rev_at_epoch": 487,
        "meta_bstar": 0,
        "meta_mean_motion_dot": -1.48e-06,
        "meta_mean_motion_ddot": 0,
        "tle_line1": "1 40271U 14062A   25342.51746481 -.00000148  00000+0  00000+0 0  9991",
        "tle_line2": "2 40271   0.0126  12.2657 0001201  75.3577  81.1316  1.00270930  4877"
      },
      "geometry": {
        "type": "Point",
        "coordinates": [
          56.076574242723595,
          0.026110370442752755
        ]
      }
    },
    {
      "type": "Feature",
      "properties": {
        "norad_id": 40333,
        "name": "DIRECTV 14",
        "group": "intelsat",
        "lat": 0.03603865448209321,
        "lon": 51.923202410888806,
        "alt_km": 35787.89754914127,
        "timestamp": "2025-12-09T04:51:47.176044+00:00",
        "meta_object_name": "DIRECTV 14",
        "meta_object_id": "2014-078B",
        "meta_epoch": "2025-12-08T14:50:30.133248",
        "meta_mean_motion": 1.00271822,
        "meta_eccentricity": 4.72e-05,
        "meta_inclination": 0.0167,
        "meta_ra_of_asc_node": 332.654,
        "meta_arg_of_pericenter": 234.9595,
        "meta_mean_anomaly": 353.4187,
        "meta_ephemeris_type": 0,
        "meta_classification_type": "U",
        "meta_norad_cat_id": 40333,
        "meta_element_set_no": 999,
        "meta_rev_at_epoch": 4013,
        "meta_bstar": 0,
        "meta_mean_motion_dot": -1.23e-06,
        "meta_mean_motion_ddot": 0,
        "tle_line1": "1 40333U 14078B   25342.61840432 -.00000123  00000+0  00000+0 0  9992",
        "tle_line2": "2 40333   0.0167 332.6540 0000472 234.9595 353.4187  1.00271822 40134"
      },
      "geometry": {
        "type": "Point",
        "coordinates": [
          51.923202410888806,
          0.03603865448209321
        ]
      }
    },
    {
      "type": "Feature",
      "properties": {
        "norad_id": 40663,
        "name": "DIRECTV 15",
        "group": "intelsat",
        "lat": 0.001451475371008849,
        "lon": 48.27748892269181,
        "alt_km": 35787.67592631417,
        "timestamp": "2025-12-09T04:51:47.176056+00:00",
        "meta_object_name": "DIRECTV 15",
        "meta_object_id": "2015-026A",
        "meta_epoch": "2025-12-08T14:49:37.716096",
        "meta_mean_motion": 1.0026899,
        "meta_eccentricity": 3.15e-05,
        "meta_inclination": 0.0368,
        "meta_ra_of_asc_node": 78.2463,
        "meta_arg_of_pericenter": 203.1344,
        "meta_mean_anomaly": 275.7875,
        "meta_ephemeris_type": 0,
        "meta_classification_type": "U",
        "meta_norad_cat_id": 40663,
        "meta_element_set_no": 999,
        "meta_rev_at_epoch": 3855,
        "meta_bstar": 0,
        "meta_mean_motion_dot": -1e-06,
        "meta_mean_motion_ddot": 0,
        "tle_line1": "1 40663U 15026A   25342.61779764 -.00000100  00000+0  00000+0 0  9996",
        "tle_line2": "2 40663   0.0368  78.2463 0000315 203.1344 275.7875  1.00268990 38551"
      },
      "geometry": {
        "type": "Point",
        "coordinates": [
          48.27748892269181,
          0.001451475371008849
        ]
      }
    },
    {
      "type": "Feature",
      "properties": {
        "norad_id": 40664,
        "name": "SKY MEXICO-1",
        "group": "intelsat",
        "lat": 0.021306702727525377,
        "lon": 72.38525718841261,
        "alt_km": 35797.30455311335,
        "timestamp": "2025-12-09T04:51:47.176068+00:00",
        "meta_object_name": "SKY MEXICO-1",
        "meta_object_id": "2015-026B",
        "meta_epoch": "2025-12-08T18:19:50.121120",
        "meta_mean_motion": 1.00270882,
        "meta_eccentricity": 0.0002758,
        "meta_inclination": 0.0234,
        "meta_ra_of_asc_node": 57.1528,
        "meta_arg_of_pericenter": 215.8654,
        "meta_mean_anomaly": 0.9408,
        "meta_ephemeris_type": 0,
        "meta_classification_type": "U",
        "meta_norad_cat_id": 40664,
        "meta_element_set_no": 999,
        "meta_rev_at_epoch": 3854,
        "meta_bstar": 0,
        "meta_mean_motion_dot": -2.32e-06,
        "meta_mean_motion_ddot": 0,
        "tle_line1": "1 40664U 15026B   25342.76377455 -.00000232  00000+0  00000+0 0  9990",
        "tle_line2": "2 40664   0.0234  57.1528 0002758 215.8654   0.9408  1.00270882 38541"
      },
      "geometry": {
        "type": "Point",
        "coordinates": [
          72.38525718841261,
          0.021306702727525377
        ]
      }
    },
    {
      "type": "Feature",
      "properties": {
        "norad_id": 40874,
        "name": "INTELSAT 34 (IS-34)",
        "group": "intelsat",
        "lat": 0.02097756637128411,
        "lon": 95.63652629727245,
        "alt_km": 35785.92481735123,
        "timestamp": "2025-12-09T04:51:47.176080+00:00",
        "meta_object_name": "INTELSAT 34 (IS-34)",
        "meta_object_id": "2015-039A",
        "meta_epoch": "2025-12-08T18:28:32.848896",
        "meta_mean_motion": 1.00270478,
        "meta_eccentricity": 8.18e-05,
        "meta_inclination": 0.0137,
        "meta_ra_of_asc_node": 304.8803,
        "meta_arg_of_pericenter": 231.1088,
        "meta_mean_anomaly": 123.4262,
        "meta_ephemeris_type": 0,
        "meta_classification_type": "U",
        "meta_norad_cat_id": 40874,
        "meta_element_set_no": 999,
        "meta_rev_at_epoch": 3771,
        "meta_bstar": 0,
        "meta_mean_motion_dot": -2.83e-06,
        "meta_mean_motion_ddot": 0,
        "tle_line1": "1 40874U 15039A   25342.76982464 -.00000283  00000+0  00000+0 0  9995",
        "tle_line2": "2 40874   0.0137 304.8803 0000818 231.1088 123.4262  1.00270478 37719"
      },
      "geometry": {
        "type": "Point",
        "coordinates": [
          95.63652629727245,
          0.02097756637128411
        ]
      }
    }
  ]
}